OKEAN-4
1 23317U 94066A   14185.13253432  .00000740  00000-0  82450-4 0  5779
2 23317 082.5376 052.0478 0021478 046.8538 069.0208 14.85562178 65622
NOAA-14
1 23455U 94089A   14184.34540998  .00000020  00000-0  33312-4 0  8097
2 23455 098.7781 267.4949 0009098 000.2503 048.1486 14.13977352  6232
NOAA-15
1 25338U 98030A   14184.48762759  .00000213  00000-0  10883-3 0  2450
2 25338 098.7526 178.3146 0011861 101.2448 050.5353 14.25437641839162
RESURS
1 25394U 98043A   14184.94366358 -.00000031  00000-0  44808-5 0  6956
2 25394 098.4134 148.6103 0001442 162.5878 265.8745 14.24395326830709
FENGYUN1
1 25730U 99025A   14184.50269424  .00000911  00000-0  52078-3 0  1833
2 25730 098.9130 145.4937 0026646 065.6498 050.8188 14.11934644779824
OKEAN-0
1 25860U 99039A   14184.79047808  .00000367  00000-0  61738-4 0  2923
2 25860 098.0433 148.5576 0001475 081.3859 338.6472 14.75297446804607
NOAA-16
1 26536U 00055A   14184.29666197  .00000064  00000-0  58402-4 0  7425
2 26536 098.9893 244.7303 0011644 136.9560 223.2525 14.13074138710381
NOAA-17
1 27453U 02032A   14184.48599858  .00000078  00000-0  51013-4 0  6415
2 27453 098.3141 183.3404 0012895 124.2651 235.9752 14.24753684625008
NOAA-18
1 28654U 05018A   14184.48892116  .00000077  00000-0  67295-4 0  1423
2 28654 099.1485 164.3163 0013802 214.6723 304.3297 14.12034393469867
NOAA-19
1 33591U 09005A   14184.44660627  .00000033  00000-0  42547-4 0  2937
2 33591 098.9448 129.4356 0015152 075.5751 062.4414 14.11732155278287
HUBBLE
1 20580U 90037B   14184.50351946  .00001654  00000-0  10041-3 0   474
2 20580 028.4695 289.8694 0003323 095.8067 004.2465 15.05495768127172
ISS
1 25544U 98067A   14185.56393490  .00008057  00000-0  14697-3 0  6287
2 25544 051.6482 013.4254 0003568 206.8812 202.4858 15.50393805894027
CO-58
1 28895U 05043F   14184.50009634  .00000638  00000-0  13615-3 0  8095
2 28895 097.8344 025.5205 0016213 322.6475 037.3599 14.61914786462634
FALCON
1 30776U 07006E   14184.97514699  .00007366  00000-0  37213-3 0  9030
2 30776 035.4296 009.7989 0000928 071.5082 059.6756 15.16458464403287
MAST
1 31126U 07012K   14184.90915557  .00000412  00000-0  10032-3 0   843
2 31126 097.9146 164.9312 0090649 302.5468 108.9392 14.55304655382826
CAPE1
1 31130U 07012P   14184.92820361  .00000642  00000-0  15191-3 0   912
2 31130 097.9356 161.6229 0097819 320.7849 038.6289 14.54477035382248
COMPASS
1 32787U 08021E   14185.11292394  .00002606  00000-0  28938-3 0  9748
2 32787 097.7008 238.1590 0015325 123.4263 236.8422 14.87976986334704
