Satellite: OKEAN-4
Catalog number: 23317
Epoch time:      14185.13253432
Element set:     577
Inclination:      082.5376 deg
RA of node:       052.0478 deg
Eccentricity:    0.0021478
Arg of perigee:   046.8538 deg
Mean anomaly:     069.0208 deg
Mean motion:   14.85562178 rev/day
Decay rate:       7.40e-06 rev/day^2
Epoch rev:            6562
Checksum:              306

Satellite: NOAA-14
Catalog number: 23455
Epoch time:      14184.34540998
Element set:     809
Inclination:      098.7781 deg
RA of node:       267.4949 deg
Eccentricity:    0.0009098
Arg of perigee:   000.2503 deg
Mean anomaly:     048.1486 deg
Mean motion:   14.13977352 rev/day
Decay rate:        2.0e-07 rev/day^2
Epoch rev:             623
Checksum:              315

Satellite: NOAA-15
Catalog number: 25338
Epoch time:      14184.48762759
Element set:     245
Inclination:      098.7526 deg
RA of node:       178.3146 deg
Eccentricity:    0.0011861
Arg of perigee:   101.2448 deg
Mean anomaly:     050.5353 deg
Mean motion:   14.25437641 rev/day
Decay rate:       2.13e-06 rev/day^2
Epoch rev:           83916
Checksum:              309

Satellite: RESURS
Catalog number: 25394
Epoch time:      14184.94366358
Element set:     695
Inclination:      098.4134 deg
RA of node:       148.6103 deg
Eccentricity:    0.0001442
Arg of perigee:   162.5878 deg
Mean anomaly:     265.8745 deg
Mean motion:   14.24395326 rev/day
Decay rate:       -3.1e-07 rev/day^2
Epoch rev:           83070
Checksum:              314

Satellite: FENGYUN1
Catalog number: 25730
Epoch time:      14184.50269424
Element set:     183
Inclination:      098.9130 deg
RA of node:       145.4937 deg
Eccentricity:    0.0026646
Arg of perigee:   065.6498 deg
Mean anomaly:     050.8188 deg
Mean motion:   14.11934644 rev/day
Decay rate:       9.11e-06 rev/day^2
Epoch rev:           77982
Checksum:              325

Satellite: OKEAN-0
Catalog number: 25860
Epoch time:      14184.79047808
Element set:     292
Inclination:      098.0433 deg
RA of node:       148.5576 deg
Eccentricity:    0.0001475
Arg of perigee:   081.3859 deg
Mean anomaly:     338.6472 deg
Mean motion:   14.75297446 rev/day
Decay rate:       3.67e-06 rev/day^2
Epoch rev:           80460
Checksum:              335

Satellite: NOAA-16
Catalog number: 26536
Epoch time:      14184.29666197
Element set:     742
Inclination:      098.9893 deg
RA of node:       244.7303 deg
Eccentricity:    0.0011644
Arg of perigee:   136.9560 deg
Mean anomaly:     223.2525 deg
Mean motion:   14.13074138 rev/day
Decay rate:        6.4e-07 rev/day^2
Epoch rev:           71038
Checksum:              314

Satellite: NOAA-17
Catalog number: 27453
Epoch time:      14184.48599858
Element set:     641
Inclination:      098.3141 deg
RA of node:       183.3404 deg
Eccentricity:    0.0012895
Arg of perigee:   124.2651 deg
Mean anomaly:     235.9752 deg
Mean motion:   14.24753684 rev/day
Decay rate:        7.8e-07 rev/day^2
Epoch rev:           62500
Checksum:              325

Satellite: NOAA-18
Catalog number: 28654
Epoch time:      14184.48892116
Element set:     142
Inclination:      099.1485 deg
RA of node:       164.3163 deg
Eccentricity:    0.0013802
Arg of perigee:   214.6723 deg
Mean anomaly:     304.3297 deg
Mean motion:   14.12034393 rev/day
Decay rate:        7.7e-07 rev/day^2
Epoch rev:           46986
Checksum:              313

Satellite: NOAA-19
Catalog number: 33591
Epoch time:      14184.44660627
Element set:     293
Inclination:      098.9448 deg
RA of node:       129.4356 deg
Eccentricity:    0.0015152
Arg of perigee:   075.5751 deg
Mean anomaly:     062.4414 deg
Mean motion:   14.11732155 rev/day
Decay rate:        3.3e-07 rev/day^2
Epoch rev:           27828
Checksum:              309

/EX
SB KEPS @ AMSAT  $ORB14185.M
Orbital Elements  14185.MISC

HR AMSAT ORBITAL ELEMENTS FOR MANNED AND MISCELLANEOUS SATELLITES
FROM WA5QGD FORT WORTH,TX July 4, 2014
BID: ORB14185.M
TO ALL RADIO AMATEURS BT

Satellite: HUBBLE
Catalog number: 20580
Epoch time:      14184.50351946
Element set:      47
Inclination:      028.4695 deg
RA of node:       289.8694 deg
Eccentricity:    0.0003323
Arg of perigee:   095.8067 deg
Mean anomaly:     004.2465 deg
Mean motion:   15.05495768 rev/day
Decay rate:      1.654e-05 rev/day^2
Epoch rev:           12717
Checksum:              316

Satellite: ISS
Catalog number: 25544
Epoch time:      14185.56393490
Element set:     628
Inclination:      051.6482 deg
RA of node:       013.4254 deg
Eccentricity:    0.0003568
Arg of perigee:   206.8812 deg
Mean anomaly:     202.4858 deg
Mean motion:   15.50393805 rev/day
Decay rate:      8.057e-05 rev/day^2
Epoch rev:           89402
Checksum:              307

Satellite: CO-58
Catalog number: 28895
Epoch time:      14184.50009634
Element set:     809
Inclination:      097.8344 deg
RA of node:       025.5205 deg
Eccentricity:    0.0016213
Arg of perigee:   322.6475 deg
Mean anomaly:     037.3599 deg
Mean motion:   14.61914786 rev/day
Decay rate:       6.38e-06 rev/day^2
Epoch rev:           46263
Checksum:              334

Satellite: FALCON
Catalog number: 30776
Epoch time:      14184.97514699
Element set:     903
Inclination:      035.4296 deg
RA of node:       009.7989 deg
Eccentricity:    0.0000928
Arg of perigee:   071.5082 deg
Mean anomaly:     059.6756 deg
Mean motion:   15.16458464 rev/day
Decay rate:      7.366e-05 rev/day^2
Epoch rev:           40328
Checksum:              345

Satellite: MAST
Catalog number: 31126
Epoch time:      14184.90915557
Element set:      84
Inclination:      097.9146 deg
RA of node:       164.9312 deg
Eccentricity:    0.0090649
Arg of perigee:   302.5468 deg
Mean anomaly:     108.9392 deg
Mean motion:   14.55304655 rev/day
Decay rate:       4.12e-06 rev/day^2
Epoch rev:           38282
Checksum:              311

Satellite: CAPE1
Catalog number: 31130
Epoch time:      14184.92820361
Element set:      91
Inclination:      097.9356 deg
RA of node:       161.6229 deg
Eccentricity:    0.0097819
Arg of perigee:   320.7849 deg
Mean anomaly:     038.6289 deg
Mean motion:   14.54477035 rev/day
Decay rate:       6.42e-06 rev/day^2
Epoch rev:           38224
Checksum:              317

Satellite: COMPASS
Catalog number: 32787
Epoch time:      14185.11292394
Element set:     974
Inclination:      097.7008 deg
RA of node:       238.1590 deg
Eccentricity:    0.0015325
Arg of perigee:   123.4263 deg
Mean anomaly:     236.8422 deg
Mean motion:   14.87976986 rev/day
Decay rate:      2.606e-05 rev/day^2
Epoch rev:           33470
Checksum:              324

